{
  "type": "FeatureCollection",
  "features": [
    {
      "type": "Feature",
      "properties": {
        "norad_id": 34570,
        "name": "COSMOS 2251 DEB",
        "group": "cosmos-2251-debris",
        "lat": -12.49780047288958,
        "lon": 52.29497383402306,
        "alt_km": 872.9233197034509,
        "timestamp": "2025-12-06T18:50:10.564391+00:00",
        "meta_object_name": "COSMOS 2251 DEB",
        "meta_object_id": "1993-036VG",
        "meta_epoch": "2025-12-06T03:12:06.499584",
        "meta_mean_motion": 13.99803455,
        "meta_eccentricity": 0.01902195,
        "meta_inclination": 73.9579,
        "meta_ra_of_asc_node": 229.771,
        "meta_arg_of_pericenter": 113.7537,
        "meta_mean_anomaly": 35.4941,
        "meta_ephemeris_type": 0,
        "meta_classification_type": "U",
        "meta_norad_cat_id": 34570,
        "meta_element_set_no": 999,
        "meta_rev_at_epoch": 85508,
        "meta_bstar": 0.00076088738,
        "meta_mean_motion_dot": 1.281e-05,
        "meta_mean_motion_ddot": 0,
        "tle_line1": "1 34570U 93036VG  25340.13340856  .00001281  00000+0  76089-3 0  9998",
        "tle_line2": "2 34570  73.9579 229.7710 0190219 113.7537  35.4941 13.99803455855087"
      },
      "geometry": {
        "type": "Point",
        "coordinates": [
          52.29497383402306,
          -12.49780047288958
        ]
      }
    },
    {
      "type": "Feature",
      "properties": {
        "norad_id": 34571,
        "name": "COSMOS 2251 DEB",
        "group": "cosmos-2251-debris",
        "lat": 66.87256643439142,
        "lon": -124.33640229003102,
        "alt_km": 766.796000345963,
        "timestamp": "2025-12-06T18:50:10.564400+00:00",
        "meta_object_name": "COSMOS 2251 DEB",
        "meta_object_id": "1993-036VH",
        "meta_epoch": "2025-12-05T20:57:01.253952",
        "meta_mean_motion": 14.48652907,
        "meta_eccentricity": 0.00669019,
        "meta_inclination": 74.039,
        "meta_ra_of_asc_node": 195.2976,
        "meta_arg_of_pericenter": 231.9254,
        "meta_mean_anomaly": 127.586,
        "meta_ephemeris_type": 0,
        "meta_classification_type": "U",
        "meta_norad_cat_id": 34571,
        "meta_element_set_no": 999,
        "meta_rev_at_epoch": 87194,
        "meta_bstar": 0.0035092807,
        "meta_mean_motion_dot": 0.0001359,
        "meta_mean_motion_ddot": 0,
        "tle_line1": "1 34571U 93036VH  25339.87293118  .00013590  00000+0  35093-2 0  9991",
        "tle_line2": "2 34571  74.0390 195.2976 0066901 231.9254 127.5860 14.48652907871946"
      },
      "geometry": {
        "type": "Point",
        "coordinates": [
          -124.33640229003102,
          66.87256643439142
        ]
      }
    },
    {
      "type": "Feature",
      "properties": {
        "norad_id": 34572,
        "name": "COSMOS 2251 DEB",
        "group": "cosmos-2251-debris",
        "lat": -73.96849160121224,
        "lon": 40.37688425569749,
        "alt_km": 717.5001489929537,
        "timestamp": "2025-12-06T18:50:10.564410+00:00",
        "meta_object_name": "COSMOS 2251 DEB",
        "meta_object_id": "1993-036VJ",
        "meta_epoch": "2025-12-03T10:14:07.080576",
        "meta_mean_motion": 14.49672328,
        "meta_eccentricity": 0.00639869,
        "meta_inclination": 74.0096,
        "meta_ra_of_asc_node": 133.0197,
        "meta_arg_of_pericenter": 208.2005,
        "meta_mean_anomaly": 181.8869,
        "meta_ephemeris_type": 0,
        "meta_classification_type": "U",
        "meta_norad_cat_id": 34572,
        "meta_element_set_no": 999,
        "meta_rev_at_epoch": 87243,
        "meta_bstar": 0.0038394199,
        "meta_mean_motion_dot": 0.00015164,
        "meta_mean_motion_ddot": 0,
        "tle_line1": "1 34572U 93036VJ  25337.42647084  .00015164  00000+0  38394-2 0  9992",
        "tle_line2": "2 34572  74.0096 133.0197 0063986 208.2005 181.8869 14.49672328872433"
      },
      "geometry": {
        "type": "Point",
        "coordinates": [
          40.37688425569749,
          -73.96849160121224
        ]
      }
    },
    {
      "type": "Feature",
      "properties": {
        "norad_id": 34574,
        "name": "COSMOS 2251 DEB",
        "group": "cosmos-2251-debris",
        "lat": 68.81314559739891,
        "lon": 102.13199767487649,
        "alt_km": 605.2886504944081,
        "timestamp": "2025-12-06T18:50:10.564420+00:00",
        "meta_object_name": "COSMOS 2251 DEB",
        "meta_object_id": "1993-036VL",
        "meta_epoch": "2025-12-05T05:05:33.914112",
        "meta_mean_motion": 14.70474844,
        "meta_eccentricity": 0.00669895,
        "meta_inclination": 74.0703,
        "meta_ra_of_asc_node": 57.7127,
        "meta_arg_of_pericenter": 81.2459,
        "meta_mean_anomaly": 312.8896,
        "meta_ephemeris_type": 0,
        "meta_classification_type": "U",
        "meta_norad_cat_id": 34574,
        "meta_element_set_no": 999,
        "meta_rev_at_epoch": 88668,
        "meta_bstar": 0.0018703262,
        "meta_mean_motion_dot": 0.00011728,
        "meta_mean_motion_ddot": 0,
        "tle_line1": "1 34574U 93036VL  25339.21219808  .00011728  00000+0  18703-2 0  9996",
        "tle_line2": "2 34574  74.0703  57.7127 0066989  81.2459 312.8896 14.70474844886688"
      },
      "geometry": {
        "type": "Point",
        "coordinates": [
          102.13199767487649,
          68.81314559739891
        ]
      }
    },
    {
      "type": "Feature",
      "properties": {
        "norad_id": 34576,
        "name": "COSMOS 2251 DEB",
        "group": "cosmos-2251-debris",
        "lat": 9.83646245130349,
        "lon": 152.32298474166438,
        "alt_km": 709.1763613395551,
        "timestamp": "2025-12-06T18:50:10.564430+00:00",
        "meta_object_name": "COSMOS 2251 DEB",
        "meta_object_id": "1993-036VN",
        "meta_epoch": "2025-12-05T22:03:28.107648",
        "meta_mean_motion": 14.55346539,
        "meta_eccentricity": 0.00079495,
        "meta_inclination": 74.0327,
        "meta_ra_of_asc_node": 151.1169,
        "meta_arg_of_pericenter": 285.1521,
        "meta_mean_anomaly": 230.9661,
        "meta_ephemeris_type": 0,
        "meta_classification_type": "U",
        "meta_norad_cat_id": 34576,
        "meta_element_set_no": 999,
        "meta_rev_at_epoch": 88367,
        "meta_bstar": 0.0014239475,
        "meta_mean_motion_dot": 6.158e-05,
        "meta_mean_motion_ddot": 0,
        "tle_line1": "1 34576U 93036VN  25339.91907532  .00006158  00000+0  14239-2 0  9994",
        "tle_line2": "2 34576  74.0327 151.1169 0007949 285.1521 230.9661 14.55346539883671"
      },
      "geometry": {
        "type": "Point",
        "coordinates": [
          152.32298474166438,
          9.83646245130349
        ]
      }
    },
    {
      "type": "Feature",
      "properties": {
        "norad_id": 34579,
        "name": "COSMOS 2251 DEB",
        "group": "cosmos-2251-debris",
        "lat": 73.23357770947938,
        "lon": -53.39368770603475,
        "alt_km": 748.8214869064223,
        "timestamp": "2025-12-06T18:50:10.564440+00:00",
        "meta_object_name": "COSMOS 2251 DEB",
        "meta_object_id": "1993-036VR",
        "meta_epoch": "2025-12-06T04:11:53.245248",
        "meta_mean_motion": 14.45278077,
        "meta_eccentricity": 0.00275689,
        "meta_inclination": 74.0535,
        "meta_ra_of_asc_node": 236.1138,
        "meta_arg_of_pericenter": 305.7301,
        "meta_mean_anomaly": 206.7173,
        "meta_ephemeris_type": 0,
        "meta_classification_type": "U",
        "meta_norad_cat_id": 34579,
        "meta_element_set_no": 999,
        "meta_rev_at_epoch": 88079,
        "meta_bstar": 0.00083625332,
        "meta_mean_motion_dot": 2.923e-05,
        "meta_mean_motion_ddot": 0,
        "tle_line1": "1 34579U 93036VR  25340.17492182  .00002923  00000+0  83625-3 0  9999",
        "tle_line2": "2 34579  74.0535 236.1138 0027568 305.7301 206.7173 14.45278077880798"
      },
      "geometry": {
        "type": "Point",
        "coordinates": [
          -53.39368770603475,
          73.23357770947938
        ]
      }
    },
    {
      "type": "Feature",
      "properties": {
        "norad_id": 34582,
        "name": "COSMOS 2251 DEB",
        "group": "cosmos-2251-debris",
        "lat": 61.18600369663859,
        "lon": -45.15500193561274,
        "alt_km": 712.2703235128793,
        "timestamp": "2025-12-06T18:50:10.564450+00:00",
        "meta_object_name": "COSMOS 2251 DEB",
        "meta_object_id": "1993-036VU",
        "meta_epoch": "2025-12-06T05:13:38.124768",
        "meta_mean_motion": 14.43270837,
        "meta_eccentricity": 0.00474965,
        "meta_inclination": 74.0203,
        "meta_ra_of_asc_node": 284.5044,
        "meta_arg_of_pericenter": 36.1527,
        "meta_mean_anomaly": 324.2824,
        "meta_ephemeris_type": 0,
        "meta_classification_type": "U",
        "meta_norad_cat_id": 34582,
        "meta_element_set_no": 999,
        "meta_rev_at_epoch": 87853,
        "meta_bstar": 0.0013568983,
        "meta_mean_motion_dot": 4.608e-05,
        "meta_mean_motion_ddot": 0,
        "tle_line1": "1 34582U 93036VU  25340.21780237  .00004608  00000+0  13569-2 0  9990",
        "tle_line2": "2 34582  74.0203 284.5044 0047496  36.1527 324.2824 14.43270837878536"
      },
      "geometry": {
        "type": "Point",
        "coordinates": [
          -45.15500193561274,
          61.18600369663859
        ]
      }
    }
  ]
}